     2              NAVIGATION DATA                         RINEX VERSION / TYPE
CCRINEXN V1.6.0 UX  CDDIS               01-JAN-00 20:55     PGM / RUN BY / DATE 
IGS BROADCAST EPHEMERIS FILE                                COMMENT             
    0.1118D-07 -0.7451D-08 -0.5961D-07  0.1192D-06          ION ALPHA           
    0.1167D+06 -0.2294D+06 -0.1311D+06  0.1049D+07          ION BETA            
    0.838190317154D-08 0.195399252334D-13   589824     1251 DELTA-UTC: A0,A1,T,W
    13                                                      LEAP SECONDS        
                                                            END OF HEADER       
18 04  1  1  6  0  0.0-0.328570604324D-05-0.204636307899D-11 0.000000000000D+00
    0.700000000000D+01-0.522812500000D+02 0.441732685654D-08-0.153836079387D+01
   -0.270456075668D-05 0.445328128990D-02 0.655278563500D-05 0.515363703918D+04
    0.367200000000D+06 0.447034835815D-07-0.166111346285D+01-0.298023223877D-07
    0.964079496935D+00 0.254406250000D+03-0.293741986573D+01-0.811676666734D-08
   -0.921466954226D-10 0.100000000000D+01 0.125100000000D+04 0.000000000000D+00
    0.280000000000D+01 0.000000000000D+00-0.102445483208D-07 0.263000000000D+03
    0.360018000000D+06 0.400000000000D+01 0.000000000000D+00 0.000000000000D+00
20 04  1  1  6  0  0.0-0.196633394808D-03 0.204636307899D-11 0.000000000000D+00
    0.221000000000D+03-0.599062500000D+02 0.449161566525D-08-0.223477123485D+01
   -0.306591391563D-05 0.192902213894D-02 0.604800879955D-05 0.515374866295D+04
    0.367200000000D+06 0.726431608200D-07-0.171338493023D+01-0.111758708954D-07
    0.964210217443D+00 0.267312500000D+03 0.163143763273D+01-0.813283876538D-08
   -0.161792453591D-09 0.000000000000D+00 0.125100000000D+04 0.000000000000D+00
    0.280000000000D+01 0.000000000000D+00-0.698491930962D-08 0.477000000000D+03
    0.360000000000D+06 0.400000000000D+01 0.000000000000D+00 0.000000000000D+00
22 04  1  1  6  0  0.0-0.956160947681D-04 0.693489710102D-11 0.000000000000D+00
    0.206000000000D+03-0.540937500000D+02 0.447232914760D-08 0.250813824993D+01
   -0.280886888504D-05 0.667500856798D-02 0.661984086037D-05 0.515010249901D+04
    0.367200000000D+06 0.108033418655D-06-0.165089882316D+01-0.130385160446D-07
    0.961400223915D+00 0.252375000000D+03-0.139205987636D+01-0.807640784338D-08
   -0.201079804352D-09 0.100000000000D+01 0.125100000000D+04 0.000000000000D+00
    0.280000000000D+01 0.630000000000D+02-0.838190317154D-08 0.462000000000D+03
    0.360018000000D+06 0.400000000000D+01 0.000000000000D+00 0.000000000000D+00
23 04  1  1  6  0  0.0-0.182042364031D-03-0.446789272246D-10 0.000000000000D+00
    0.128000000000D+03-0.588125000000D+02 0.390730561211D-08 0.262381507675D+01
   -0.304915010929D-05 0.165856368840D-01 0.670738518238D-05 0.515384974861D+04
    0.367200000000D+06 0.203028321266D-06-0.164475168966D+01-0.111758708954D-06
    0.984242364319D+00 0.259812500000D+03-0.162520889766D+01-0.760710258064D-08
   -0.235724104569D-09 0.100000000000D+01 0.125100000000D+04 0.000000000000D+00
    0.200000000000D+01 0.000000000000D+00-0.325962901115D-08 0.384000000000D+03
    0.360018000000D+06 0.400000000000D+01 0.000000000000D+00 0.000000000000D+00
24 04  1  1  6  0  0.0 0.868448987603D-04 0.284217094304D-11 0.000000000000D+00
    0.128000000000D+03 0.367812500000D+02 0.446125725784D-08-0.295444592076D+00
    0.175274908543D-05 0.954673485830D-02 0.470504164696D-05 0.515354715157D+04
    0.367200000000D+06-0.113621354103D-06-0.270553901299D+01-0.558793544769D-08
    0.972421684878D+00 0.296625000000D+03-0.141926254692D+01-0.833606151614D-08
    0.582167106740D-10 0.100000000000D+01 0.125100000000D+04 0.000000000000D+00
    0.100000000000D+01 0.000000000000D+00-0.931322574616D-09 0.896000000000D+03
    0.360000000000D+06 0.000000000000D+00 0.000000000000D+00 0.000000000000D+00
25 04  1  1  6  0  0.0 0.579967163503D-04 0.682121026330D-12 0.000000000000D+00
    0.680000000000D+02-0.959375000000D+01 0.519628787482D-08 0.439401326737D+00
   -0.515952706337D-06 0.109270840185D-01 0.667013227940D-05 0.515359481430D+04
    0.367200000000D+06-0.160187482834D-06 0.305754829082D+00-0.502914190292D-07
    0.943710482450D+00 0.245437500000D+03-0.164284418785D+01-0.855821362681D-08
    0.100718481043D-09 0.000000000000D+00 0.125100000000D+04 0.000000000000D+00
    0.280000000000D+01 0.000000000000D+00-0.745058059692D-08 0.324000000000D+03
    0.360000000000D+06 0.400000000000D+01 0.000000000000D+00 0.000000000000D+00
26 04  1  1  6  0  0.0 0.465721823275D-03-0.898126018001D-11 0.000000000000D+00
    0.380000000000D+02-0.231875000000D+02 0.411159983607D-08 0.150182541402D+01
   -0.102259218693D-05 0.148806279758D-01 0.888854265213D-05 0.515362999916D+04
    0.367200000000D+06-0.191852450371D-06-0.650170334684D+00 0.219792127609D-06
    0.979983002260D+00 0.221562500000D+03 0.542846165916D+00-0.794033074665D-08
    0.710743891050D-10 0.100000000000D+01 0.125100000000D+04 0.000000000000D+00
    0.280000000000D+01 0.000000000000D+00-0.651925802231D-08 0.550000000000D+03
    0.360018000000D+06 0.400000000000D+01 0.000000000000D+00 0.000000000000D+00
27 04  1  1  6  0  0.0 0.873220153153D-03 0.140971678775D-10 0.000000000000D+00
    0.133000000000D+03-0.525000000000D+01 0.503235247482D-08-0.105441026154D+01
   -0.111758708954D-06 0.177912758663D-01 0.600330531597D-05 0.515359062958D+04
    0.367200000000D+06 0.299885869026D-06 0.333407414249D+00 0.337138772011D-06
    0.948230813002D+00 0.254125000000D+03-0.222440974305D+01-0.835534803378D-08
    0.126790995640D-09 0.000000000000D+00 0.125100000000D+04 0.000000000000D+00
    0.200000000000D+01 0.000000000000D+00-0.419095158577D-08 0.133000000000D+03
    0.362790000000D+06 0.400000000000D+01 0.000000000000D+00 0.000000000000D+00
28 04  1  1  6  0  0.0 0.122860074043D-04 0.204636307899D-11 0.000000000000D+00
    0.130000000000D+03-0.254062500000D+02 0.452090259945D-08-0.251609833684D+01
   -0.139139592648D-05 0.818349700421D-02 0.865571200848D-05 0.515369292641D+04
    0.367200000000D+06-0.186264514923D-07 0.144222393855D+01-0.819563865662D-07
    0.958608632434D+00 0.211593750000D+03-0.243147421232D+01-0.782711174491D-08
   -0.161435295857D-09 0.100000000000D+01 0.125100000000D+04 0.000000000000D+00
    0.100000000000D+01 0.000000000000D+00-0.102445483208D-07 0.130000000000D+03
    0.360000000000D+06 0.000000000000D+00 0.000000000000D+00 0.000000000000D+00
30 04  1  1  6  0  0.0 0.718399882317D-03 0.186446413864D-10 0.000000000000D+00
    0.116000000000D+03-0.145312500000D+02 0.495127766916D-08-0.232280460511D+01
   -0.730156898499D-06 0.737440469675D-02 0.828877091408D-05 0.515372090530D+04
    0.367200000000D+06 0.106170773506D-06 0.140349494083D+01 0.931322574616D-08
    0.942330707856D+00 0.209187500000D+03 0.128617952288D+01-0.805533553706D-08
   -0.216794744657D-09 0.100000000000D+01 0.125100000000D+04 0.000000000000D+00
    0.100000000000D+01 0.000000000000D+00-0.838190317154D-08 0.628000000000D+03
    0.360000000000D+06 0.000000000000D+00 0.000000000000D+00 0.000000000000D+00
31 04  1  1  6  0  0.0 0.353888608515D-04 0.387672116631D-10 0.000000000000D+00
    0.410000000000D+02 0.606562500000D+02 0.495234914236D-08 0.916222888110D+00
    0.330619513989D-05 0.120844880585D-01 0.990554690361D-05 0.515367000389D+04
    0.367200000000D+06-0.130385160446D-06 0.243346034305D+01 0.428408384323D-07
    0.937621739869D+00 0.177937500000D+03 0.957573072225D+00-0.839784980415D-08
   -0.116433421348D-09 0.000000000000D+00 0.125100000000D+04 0.000000000000D+00
    0.280000000000D+01 0.000000000000D+00-0.605359673500D-08 0.297000000000D+03
    0.360000000000D+06 0.400000000000D+01 0.000000000000D+00 0.000000000000D+00
 1 04  1  1  7 59 44.0 0.322374980897D-03 0.181898940355D-11 0.000000000000D+00
    0.141000000000D+03-0.315000000000D+02 0.414910139816D-08 0.105666903339D+01
   -0.162050127983D-05 0.538902613334D-02 0.932440161705D-05 0.515362409592D+04
    0.374384000000D+06-0.800937414169D-07-0.635391427152D+00-0.130385160446D-07
    0.977393616779D+00 0.212281250000D+03-0.171074256956D+01-0.790497213096D-08
    0.283940398686D-09 0.000000000000D+00 0.125100000000D+04 0.000000000000D+00
    0.200000000000D+01 0.000000000000D+00-0.325962901115D-08 0.397000000000D+03
    0.367200000000D+06 0.400000000000D+01 0.000000000000D+00 0.000000000000D+00
 9 04  1  1  7 59 44.0-0.237040221691D-04-0.170530256582D-11 0.000000000000D+00
    0.380000000000D+02-0.113125000000D+02 0.508128308441D-08 0.751639334761D+00
   -0.482425093651D-06 0.151481991634D-01 0.647641718388D-05 0.515373177528D+04
    0.374384000000D+06-0.141561031342D-06 0.354386708417D+00 0.117346644402D-06
    0.950646308726D+00 0.250906250000D+03 0.101507195259D+01-0.854249868650D-08
    0.407159816984D-10 0.100000000000D+01 0.125100000000D+04 0.000000000000D+00
    0.200000000000D+01 0.000000000000D+00-0.558793544769D-08 0.806000000000D+03
    0.367218000000D+06 0.400000000000D+01 0.000000000000D+00 0.000000000000D+00
18 04  1  1  7 59 44.0-0.329921022058D-05-0.204636307899D-11 0.000000000000D+00
    0.270000000000D+02-0.450625000000D+02 0.448554398377D-08-0.490746775744D+00
   -0.236928462982D-05 0.445309351198D-02 0.621005892754D-05 0.515363500786D+04
    0.374384000000D+06 0.651925802231D-07-0.166117166359D+01 0.353902578354D-07
    0.964078578222D+00 0.261500000000D+03-0.293716386238D+01-0.816498296146D-08
   -0.121433629627D-09 0.100000000000D+01 0.125100000000D+04 0.000000000000D+00
    0.200000000000D+01 0.000000000000D+00-0.102445483208D-07 0.270000000000D+02
    0.370158000000D+06 0.400000000000D+01 0.000000000000D+00 0.000000000000D+00
